A/2019 G2,e,159.2203,208.1710,82.6315,413.7419,0.0001171,0.99444905,0.0000,12/07.8340/2019,2000,g 16.5,2.0
# From MPEC 2022-VC5
A/2019 G3,e,156.8039,49.9126,161.8617,17.17910,0.0138421,0.83450506,25.6829,01/03.0/2024,2000,g 17.1,2.0
# From MPC114607
P/2019 GG21 (PANSTARRS),e,6.0868,340.5604,208.5803,7.467810,0.0482963,0.47178515,82.0640,01/03.0/2024,2000,g 12.0,4.0
# From MPEC 2022-M21
C/2019 H1 (NEOWISE),e,104.4065,269.2925,19.3117,241.8074,0.0002621,0.99237717,0.0000,04/27.8149/2019,2000,g 15.5,4.0
# From MPEC 2023-A50
C/2019 J1 (Lemmon),e,24.5330,98.1935,167.6936,67.70192,0.0017693,0.96328567,3.0644,01/03.0/2024,2000,g 12.0,4.0
# From MPEC 2021-R75
C/2019 J2 (Palomar),e,105.2589,25.5469,98.6544,160.9351,0.0004828,0.98930690,0.0000,07/20.4217/2019,2000,g 13.0,4.0
# From MPC117071
C/2019 J3 (ATLAS),h,08/02.4796/2019,131.3244,270.6305,16.5782,1.000468,2.367772,2000,13.5,4.0
# From MPEC 2022-M21
C/2019 JU6 (ATLAS),h,06/02.3627/2019,148.3290,21.7603,94.9480,1.000078,2.040509,2000,14.5,4.0
# From MPEC 2022-O08
C/2019 K1 (ATLAS),e,87.0284,73.3194,265.7380,5870,0.0000022,0.99965664,0.0000,02/12.2834/2020,2000,g 10.0,4.0
# From MPC119997
C/2019 K4 (Ye),e,105.2967,180.1800,139.9392,1469,0.0000175,0.99845285,0.0000,06/15.3889/2019,2000,g 12.5,4.0
# From MPEC 2021-P47
C/2019 K5 (Young),e,15.3131,177.1924,175.1383,169.6056,0.0004462,0.98793360,0.0000,06/22.6975/2019,2000,g 13.0,4.0
# From MPEC 2021-P47
C/2019 K6 (PANSTARRS),e,132.3796,43.0020,187.5372,1282,0.0000215,0.99694174,0.0000,05/19.6777/2020,2000,g 11.5,4.0
# From MPEC 2023-R20
C/2019 K7 (Smith),h,06/17.6459/2020,103.5164,307.9905,27.4077,1.000972,4.478085,2000,6.0,4.0
# From MPEC 2021-R75
C/2019 K8 (ATLAS),e,93.1088,291.0221,85.3616,2230,0.0000094,0.99856755,0.0000,07/21.4191/2019,2000,g 11.5,4.0
# From MPEC 2023-A50
C/2019 L1 (PANSTARRS),e,9.9759,254.4289,50.0599,9.835401,0.0319533,0.70493238,51.3560,01/03.0/2024,2000,g 13.5,4.0
# From MPC115886
C/2019 L2 (NEOWISE),e,152.2021,12.5540,18.8616,25.09270,0.0078412,0.93520184,13.6168,01/03.0/2024,2000,g 16.0,4.0
# From MPEC 2023-XP6
P/2019 LD2 (ATLAS),e,11.6098,179.4959,118.6934,5.204603,0.0830085,0.12687680,117.0842,01/03.0/2024,2000,g  8.5,4.0
# From MPEC 2023-Y97
C/2019 L3 (ATLAS),h,01/09.7813/2022,48.3453,290.7570,171.6491,1.002423,3.554837,2000,4.5,4.0
# From MPEC 2020-K19
P/2019 LM4 (Palomar),e,36.4162,72.8388,68.2773,5.705094,0.0723286,0.58521860,120.0564,01/03.0/2024,2000,g  9.5,4.0
# From MPC118095
C/2019 LB7 (Kleyna),e,164.2897,3.9086,336.6444,34.80739,0.0047995,0.92833487,8.3684,01/03.0/2024,2000,g 17.0,4.0
# From MPEC 2022-O08
P/2019 M2 (ATLAS),e,12.2689,307.5892,332.5550,3.029635,0.1869040,0.64728601,309.6901,01/03.0/2024,2000,g 21.2,4.0
# From MPC118095
C/2019 M3 (ATLAS),e,99.5529,154.9612,87.9132,5086,0.0000027,0.99952341,0.0000,12/31.5075/2018,2000,g 12.2,4.0
# From MPEC 2023-JA2
C/2019 M4 (TESS),h,09/11.8494/2019,65.6786,52.6492,260.3721,1.002799,9.189599,2000,5.0,4.0
# From MPEC 2023-C45
C/2019 N1 (ATLAS),e,82.4427,13.5641,193.3877,1247,0.0000224,0.99863256,0.0000,12/01.0103/2020,2000,g  7.5,4.0
# From MPEC 2023-CD8
A/2019 N2,e,89.3591,276.1682,347.1694,1483,0.0000173,0.99868724,0.0000,08/22.6835/2019,2000,g 12.5,2.0
# From MPEC 2022-A21
C/2019 NJ3 (Lemmon),h,10/22.7585/2020,99.3976,142.4807,246.8953,1.001950,4.363497,2000,9.0,4.0
# From MPEC 2023-SQ0
A/2019 O2,e,93.3123,48.2577,129.6164,58.24179,0.0022174,0.83375226,0.6015,01/03.0/2024,2000,g  9.5,2.0
# From MPEC 2023-Y97
C/2019 O3 (Palomar),h,03/09.6148/2021,89.8133,300.4420,60.1326,1.004290,8.821361,2000,3.5,4.0
# From MPEC 2021-P47
A/2019 O4,e,115.0764,354.9277,61.8731,33.24890,0.0051409,0.89031698,7.3111,01/03.0/2024,2000,g 15.5,2.0
# From MPEC 2023-A50
C/2019 Q1 (Lemmon),h,07/21.1952/2020,155.7314,42.4564,56.2311,1.001427,5.004670,2000,8.5,4.0
# From MPC117072
A/2019 Q2,e,159.0192,188.0324,176.4400,58.26543,0.0022161,0.97831033,0.0000,07/22.4065/2019,2000,g 18.0,2.0
# From MPC117072
P/2019 S2 (PANSTARRS),e,10.4651,93.1871,217.0986,4.744598,0.0953685,0.20520035,169.5114,01/03.0/2024,2000,g 13.5,4.0
# From MPEC 2022-CN4
P/2019 S3 (PANSTARRS),e,8.6942,150.1688,213.0572,3.415241,0.1561608,0.47105942,248.1954,01/03.0/2024,2000,g 18.3,4.0
# From MPEC 2021-S45
C/2019 S4 (Lemmon),e,92.1016,63.1578,71.3714,238.5292,0.0002675,0.98556975,0.0000,04/08.3423/2020,2000,g 11.0,4.0
# From MPEC 2023-N01
A/2019 T1,e,120.8666,6.9444,91.0572,38.83119,0.0040732,0.88978236,4.4114,01/03.0/2024,2000,g 13.0,2.0
# From MPEC 2023-R20
C/2019 T2 (Lemmon),e,111.4489,155.6546,239.4276,5032,0.0000028,0.99947427,0.0000,04/22.6405/2021,2000,g  9.0,4.0
# From MPEC 2023-UR6
C/2019 T3 (ATLAS),e,121.8401,139.5325,112.4578,3405,0.0000050,0.99825177,0.0000,03/04.3034/2021,2000,g  6.8,4.0
# From MPEC 2023-Y97
C/2019 T4 (ATLAS),e,53.6305,199.9363,351.1416,908.9450,0.0000360,0.99533433,0.0000,06/08.7798/2022,2000,g  5.0,4.0
# From MPEC 2021-P47
P/2019 T5 (ATLAS),e,33.4906,247.6147,189.5786,8.000178,0.0435567,0.80975489,70.3257,01/03.0/2024,2000,g 15.0,4.0
# From MPEC 2021-P47
P/2019 T6 (PANSTARRS),e,18.6981,71.2511,328.9979,5.439370,0.0776929,0.62305269,117.7881,01/03.0/2024,2000,g 15.5,4.0
# From MPC118096
P/2019 U4 (PANSTARRS),e,11.6987,200.0200,181.0358,3.519854,0.1492510,0.47600096,233.6998,01/03.0/2024,2000,g 19.0,4.0
# From MPEC 2023-Y97
C/2019 U5 (PANSTARRS),h,03/29.7425/2023,113.5161,2.6344,181.4762,1.001105,3.623980,2000,4.5,4.0
# From MPEC 2022-H04
C/2019 U6 (Lemmon),e,60.9672,235.7861,329.5194,323.9890,0.0001690,0.99718591,0.0000,06/18.3035/2020,2000,g 10.0,4.0
# From MPEC 2022-N37
C/2019 V1 (Borisov),e,61.9275,83.1528,51.1695,1723,0.0000138,0.99820480,0.0000,07/16.6866/2020,2000,g 11.0,4.0
# From MPEC 2022-L66
P/2019 V2 (Groeller),e,11.8077,189.1787,335.6731,7.496613,0.0480183,0.33124982,56.3326,01/03.0/2024,2000,g 10.0,4.0
# From MPEC 2023-A50
P/2019 W1 (PANSTARRS),e,23.4753,35.3764,18.7744,4.548875,0.1015893,0.26727047,172.5901,01/03.0/2024,2000,g 12.9,4.0
# From MPEC 2021-P47
P/2019 X1 (Pruyne),e,10.2504,43.6794,36.8341,6.175421,0.0642250,0.30388979,104.3690,01/03.0/2024,2000,g 10.4,4.0
# From MPEC 2020-C98
P/2019 X2 (Pan-STARRS),e,15.8951,250.8394,213.4504,3.636155,0.1421479,0.50001032,211.0999,01/03.0/2024,2000,g 18.0,4.0
# From MPC119999
C/2019 Y1 (ATLAS),e,73.3795,31.5416,57.9131,87.07261,0.0012131,0.99048799,0.0000,03/16.3418/2020,2000,g 13.7,4.0
# From MPEC 2020-C98
P/2019 Y3 (Catalina),e,24.6029,139.3063,2.5826,3.014083,0.1883524,0.69114602,279.9119,01/03.0/2024,2000,g 18.5,4.0
# From MPEC 2022-YN2
C/2019 Y4 (ATLAS),e,45.1267,120.7046,177.4469,348.9241,0.0001512,0.99926627,0.0000,05/30.6540/2020,2000,g 11.8,6.0
# From MPEC 2020-L06
C/2019 Y4-A (ATLAS),h,05/30.6855/2020,45.5673,121.0678,177.2803,1.001414,0.254170,2000,11.6,6.0
# From MPEC 2023-J29
C/2019 Y4-B (ATLAS),h,05/30.6604/2020,45.2568,120.8112,177.3908,1.000011,0.255483,2000,12.1,6.0
# From MPEC 2020-L06
C/2019 Y4-C (ATLAS),h,05/30.6383/2020,45.3500,120.7946,177.3136,1.002139,0.255242,2000,12.7,6.0
# From MPEC 2020-L06
C/2019 Y4-D (ATLAS),e,45.3970,121.1651,177.4524,68.25655,0.0017478,0.99627060,0.0000,05/30.7613/2020,2000,g 12.5,6.0
# From MPEC 2023-A50
C/2019 Y5 (PANSTARRS),e,82.7617,51.7508,303.5928,728.4606,0.0000501,0.99324084,0.0000,08/17.6088/2019,2000,g 11.0,4.0
# From MPEC 2023-A50
A/2020 A1,e,149.0345,119.1609,302.4554,25.56566,0.0076246,0.93480704,11.3851,01/03.0/2024,2000,g 18.0,2.0
# From MPEC 2022-YN2
C/2020 A2 (Iwamoto),e,120.5836,286.2606,68.0528,1247,0.0000224,0.99921929,0.0000,01/08.3254/2020,2000,g 13.5,4.0
# From MPEC 2023-A50
C/2020 A3 (ATLAS),h,06/28.6750/2019,146.6525,120.8049,268.3255,1.000381,5.756949,2000,8.0,4.0
# From MPEC 2022-P91
P/2020 A4 (PANSTARRS-Lemmon),e,24.9919,312.3568,144.7832,8.195601,0.0420081,0.65425432,63.0784,01/03.0/2024,2000,g 15.0,4.0
# From MPEC 2020-N08
A/2020 B1,e,18.5222,309.9221,154.7374,51.56876,0.0026615,0.96627526,3.9078,01/03.0/2024,2000,g 21.0,2.0
# From MPEC 2020-HN5
C/2020 B2 (Lemmon),e,55.7528,354.2796,143.5975,67.67003,0.0017706,0.95922347,2.5449,01/03.0/2024,2000,g 10.0,4.0
# From MPEC 2022-N37
C/2020 B3 (Rankin),e,20.7087,185.8312,324.8859,940.4369,0.0000342,0.99645601,0.0000,10/19.6768/2019,2000,g 13.0,4.0
# From MPEC 2023-KD6
P/2020 B4 (Sheppard),e,11.6080,185.9759,342.0044,7.967509,0.0438248,0.19205731,33.9919,01/03.0/2024,2000,g 10.5,4.0
# From MPEC 2023-Y97
C/2020 F2 (ATLAS),h,07/14.1906/2022,163.5893,250.2995,48.3020,1.004902,8.815634,2000,4.5,4.0
# From MPEC 2021-O56
C/2020 F3 (NEOWISE),e,129.1370,61.0892,37.3884,373.8331,0.0001364,0.99921072,0.0000,07/04.0527/2020,2000,g  7.5,5.2
# From MPEC 2023-XP6
C/2020 F5 (MASTER),e,52.2073,350.5017,310.6788,171.8112,0.0004376,0.97482120,0.0000,03/17.1523/2021,2000,g  6.5,3.2
# From MPEC 2020-L06
C/2020 F6 (PANSTARRS),e,174.5831,207.8987,344.4871,383.9360,0.0001310,0.99087806,0.0000,04/11.5244/2020,2000,g 14.5,2.8
# From MPEC 2023-Y97
C/2020 F7 (Lemmon),e,93.9559,321.8565,227.9485,559.4328,0.0000745,0.99046815,0.0000,11/13.6389/2021,2000,g  7.0,4.0
# From MPEC 2023-J29
C/2020 F8 (SWAN),h,05/26.9827/2020,110.5915,259.8435,68.0756,1.000155,0.429911,2000,10.0,4.0
# From MPEC 2020-L06
P/2020 G1 (Pimentel),e,18.5102,240.1082,207.6166,3.607882,0.1438221,0.86060134,199.3328,01/03.0/2024,2000,g 17.0,4.0
# From MPEC 2022-YB4
C/2020 H2 (Pruyne),e,124.8564,277.6696,26.6394,186.4762,0.0003871,0.99554845,0.0000,04/27.7575/2020,2000,g 14.0,3.2
# From MPEC 2020-HM1
C/2020 H3 (Wierzchos),p,06/05.7162/2020,62.5292,30.4456,2.300288,270.6227,2000,13.5,4.0
# From MPEC 2020-L06
C/2020 H4 (Leonard),e,84.4984,307.6104,117.5155,47.82248,0.0029803,0.98066610,0.0000,08/29.6117/2020,2000,g 15.0,3.2
# From MPEC 2023-VM5
C/2020 H5 (Robinson),e,70.2550,210.6273,326.3076,4326,0.0000035,0.99784077,0.0000,12/10.3304/2020,2000,g  5.0,4.0
# From MPEC 2023-SQ0
C/2020 H6 (ATLAS),e,79.9780,213.7197,20.2685,4026,0.0000039,0.99883247,0.0000,09/30.3573/2021,2000,g  8.0,3.2
# From MPEC 2020-KB7
C/2020 H7 (Lemmon),e,135.9235,323.5194,82.6780,1405,0.0000187,0.99685380,0.0000,06/02.9510/2020,2000,g 11.0,4.0
# From MPEC 2021-N06
